{
  "norad_id": 57114,
  "name": "STARLINK-6125",
  "history": [
    {
      "epoch": "2026-03-28T12:05:59.474112",
      "apogee_km": 559.7702459761176,
      "perigee_km": 558.0373731818836,
      "latitude_deg": 21.205807426579884,
      "longitude_deg": -60.20058432011865,
      "semi_major_axis_km": 6937.040809579,
      "eccentricity": 0.0001249,
      "inclination_deg": 43.0012,
      "raan_deg": 172.4054,
      "arg_perigee_deg": 274.6409,
      "mean_anomaly_deg": 85.4291,
      "mean_motion_rev_day": 15.02593092
    }
  ]
}